IRIDIUM 33 DEB          
1 40996U 97051ABJ 24360.41703125  .00041281  00000+0  61493-2 0  9998
2 40996  86.3648 162.9486 0009491 214.8550 173.9936 14.74657544572592
IRIDIUM 33 DEB          
1 40998U 97051ABL 24358.87635712  .00003758  00000+0  11137-2 0  9990
2 40998  86.3861 204.4922 0007586 156.5409 265.3583 14.43129749 15746
IRIDIUM 33 DEB          
1 46435U 97051ABN 24354.72382096  .00026736  00000+0  99670-2 0  9995
2 46435  86.2863 346.2867 0226282 347.9134 187.0279 14.18658290 28161
IRIDIUM 33 DEB          
1 46734U 97051ABR 24351.80586899  .00005509  00000+0  17749-2 0  9992
2 46734  86.2652 160.8873 0043852  78.4650 343.3029 14.38565041578157
IRIDIUM 33 DEB          
1 46965U 97051ABX 24359.37513080  .00008979  00000+0  20039-2 0  9990
2 46965  86.3367 136.9445 0021979  83.5688 306.5811 14.56579332571173
IRIDIUM 33 DEB          
1 46974U 97051ACG 24360.45970546  .00022219  00000+0  73240-2 0  9990
2 46974  86.3034 257.6747 0104985 266.4946  92.4238 14.34904774524392
IRIDIUM 33 DEB          
1 46979U 97051ACM 24359.32665153  .00031504  00000+0  59220-2 0  9993
2 46979  86.3483 208.9624 0045895  24.1814 336.1538 14.63811770302159
